DUBAISAT-1              
1 35682U 09041B   26185.65736901  .00001331  00000+0  20461-3 0  9990
2 35682  98.0075 318.7258 0010747  22.2616 337.9058 14.75155703907679
OCEANSAT-2              
1 35931U 09051A   26185.57064271 -.00000200  00000+0 -11132-3 0  9994
2 35931  98.2318 170.6869 0016609 184.4014 175.7010 13.99658576881765
WORLDVIEW-2 (WV-2)      
1 35946U 09055A   26185.62987193  .00000206  00000+0  82761-4 0  9998
2 35946  98.4761 258.8414 0004805 156.3692 203.7716 14.37905079878155
SMOS                    
1 36036U 09059A   26185.28539676  .00000304  00000+0  11088-3 0  9996
2 36036  98.4427  12.3699 0001301  86.9741 273.1596 14.39782165875913
YAOGAN-7                
1 36110U 09069A   26185.41973833  .00000599  00000+0  89957-4 0  9999
2 36110  98.0049  71.1787 0024289 347.1078  12.9509 14.78027757892170
TANDEM-X                
1 36605U 10030A   26185.44921917  .00000595  00000+0  31546-4 0  9994
2 36605  97.4453 192.9091 0001666  88.7916 271.3510 15.19148557889261
CARTOSAT-2B             
1 36795U 10035A   26185.59559906  .00000980  00000+0  14088-3 0  9999
2 36795  97.9940 236.0340 0012191 129.6349 230.5939 14.78608127862423
YAOGAN-10               
1 36834U 10038A   26185.67391822  .00000358  00000+0  47832-4 0  9999
2 36834  97.8966 208.9388 0001651  82.6293  32.6101 14.85400542859808
COSMO-SKYMED 4          
1 37216U 10060A   26185.59142030  .00000241  00000+0  36836-4 0  9998
2 37216  97.8887   8.9384 0001446  85.9073 274.2305 14.82158318847145
RESOURCESAT-2           
1 37387U 11015A   26185.61434200  .00000145  00000+0  86075-4 0  9997
2 37387  98.7637 252.9352 0010965 201.4934 158.5784 14.21604472788655
HAIYANG-2A              
1 37781U 11043A   26185.58611039 -.00000082  00000+0 -41168-4 0  9995
2 37781  99.3394 187.8696 0004183  57.8163 302.3391 13.73780507749042
RASAT                   
1 37791U 11044D   26185.63329135  .00000639  00000+0  11911-3 0  9994
2 37791  98.0583 276.7645 0021491 134.2568 333.4372 14.68184069795749
SRMSAT                  
1 37841U 11058D   26185.61869365  .00000423  00000+0  85947-4 0  9999
2 37841  19.9730 313.9643 0011848  35.9930  68.0324 14.11579515760289
PLEIADES 1A             
1 38012U 11076F   26185.62836723  .00000642  00000+0  14795-3 0  9998
2 38012  98.1972 260.4969 0001766  85.6662  24.1564 14.58543080774537
ZIYUAN 1-02C (ZY 1-02C) 
1 38038U 11079A   26185.62611245  .00000614  00000+0  21623-3 0  9996
2 38038  98.4063 252.5702 0005154 252.7468 266.2300 14.38229611761714
ARIRANG-3 (KOMPSAT-3)   
1 38338U 12025B   26185.61928147  .00000635  00000+0  13520-3 0  9992
2 38338  98.1179 142.7792 0006704  65.9508 294.2395 14.62222918753897
EXACTVIEW-1 (ADS-1B)    
1 38709U 12039C   26185.58405507  .00000198  00000+0  10428-3 0  9993
2 38709  98.9797 303.3688 0011851 119.3224 240.9140 14.24990250725186
SPOT 6                  
1 38755U 12047A   26185.62278190  .00000471  00000+0  11127-3 0  9995
2 38755  98.2110 252.7275 0001239  77.7700 282.3638 14.58533798735598
PLEIADES 1B             
1 39019U 12068A   26185.64143926  .00000414  00000+0  98757-4 0  9994
2 39019  98.1942 260.4529 0001709  82.3982 277.7412 14.58571790723395
GOKTURK 2               
1 39030U 12073A   26185.57645554  .00000499  00000+0  80153-4 0  9993
2 39030  97.6809  22.1352 0000950  68.0719 292.0592 14.75560262727076
LANDSAT 8               
1 39084U 13008A   26185.60427120  .00000486  00000+0  11793-3 0  9991
2 39084  98.2295 255.5321 0001354  93.7576 266.3777 14.57107282700433
SARAL                   
1 39086U 13009A   26185.63817208 -.00000051  00000+0 -26043-5 0  9993
2 39086  98.5554  11.9847 0001046 199.7300 160.3844 14.32893408698106
GAOFEN-1                
1 39150U 13018A   26185.61476672  .00000542  00000+0  85008-4 0  9997
2 39150  97.9087 257.3287 0016126 206.0074 154.0328 14.76508620710818
VNREDSAT 1              
1 39160U 13021B   26185.64383131  .00000627  00000+0  12585-3 0  9995
2 39160  97.9067 238.3899 0001708  82.9343 277.2055 14.64875461702841
ARIRANG-5 (KOMPSAT-5)   
1 39227U 13042A   26185.59128630  .00001818  00000+0  13404-3 0  9991
2 39227  97.6207  12.0458 0005274  80.9007 279.2816 15.04550096706472
SKYSAT-A                
1 39418U 13066C   26185.58469759  .00004386  00000+0  25041-3 0  9991
2 39418  97.3800 234.4277 0019742 252.4164 107.4911 15.13075476691110
DUBAISAT-2              
1 39419U 13066D   26185.62871854  .00003734  00000+0  23145-3 0  9999
2 39419  97.4576 175.3171 0010389 343.8099  16.2797 15.10314549689028
GPM-CORE                
1 39574U 14009C   26185.55986475  .00018961  00000+0  40400-3 0  9998
2 39574  64.9705 249.9296 0011212 258.4363 101.5520 15.44944855700493
SENTINEL-1A             
1 39634U 14016A   26185.57891019 -.00000106  00000+0 -12693-4 0  9992
2 39634  98.1776 192.8577 0001368  84.1571 275.9784 14.59199688652553
KAZEOSAT 1              
1 39731U 14024A   26184.95150596  .00000076  00000+0  36169-4 0  9996
2 39731  98.3202 256.9818 0001156  78.7649 281.3671 14.42086207640970
