OBJECT_NAME,OBJECT_ID,EPOCH,MEAN_MOTION,ECCENTRICITY,INCLINATION,RA_OF_ASC_NODE,ARG_OF_PERICENTER,MEAN_ANOMALY,EPHEMERIS_TYPE,CLASSIFICATION_TYPE,NORAD_CAT_ID,ELEMENT_SET_NO,REV_AT_EPOCH,BSTAR,MEAN_MOTION_DOT,MEAN_MOTION_DDOT
DUBAISAT-1,2009-041B,2026-07-04T15:46:36.682464,14.75155703,.00107473,98.0075,318.7258,22.2616,337.9058,0,U,35682,999,90767,.20460577E-3,.1331E-4,0
OCEANSAT-2,2009-051A,2026-07-04T13:41:43.530144,13.99658576,.00166097,98.2318,170.6869,184.4014,175.7010,0,U,35931,999,88176,-.11132113E-3,-.2E-5,0
WORLDVIEW-2 (WV-2),2009-055A,2026-07-04T15:07:00.934752,14.37905079,.0004805,98.4761,258.8414,156.3692,203.7716,0,U,35946,999,87815,.82761344E-4,.206E-5,0
SMOS,2009-059A,2026-07-04T06:50:58.280064,14.39782165,.00013014,98.4427,12.3699,86.9741,273.1596,0,U,36036,999,87591,.11087677E-3,.304E-5,0
YAOGAN-7,2009-069A,2026-07-04T10:04:25.391712,14.78027757,.00242897,98.0049,71.1787,347.1078,12.9509,0,U,36110,999,89217,.89957282E-4,.599E-5,0
TANDEM-X,2010-030A,2026-07-04T10:46:52.536288,15.19148557,.0001666,97.4453,192.9091,88.7916,271.3510,0,U,36605,999,88926,.31545974E-4,.595E-5,0
CARTOSAT-2B,2010-035A,2026-07-04T14:17:39.758784,14.78608127,.00121914,97.9940,236.0340,129.6349,230.5939,0,U,36795,999,86242,.14087936E-3,.98E-5,0
YAOGAN-10,2010-038A,2026-07-04T16:10:26.534208,14.85400542,.00016519,97.8966,208.9388,82.6293,32.6101,0,U,36834,999,85980,.47831527E-4,.358E-5,0
COSMO-SKYMED 4,2010-060A,2026-07-04T14:11:38.713920,14.82158318,.00014469,97.8887,8.9384,85.9073,274.2305,0,U,37216,999,84714,.36835779E-4,.241E-5,0
RESOURCESAT-2,2011-015A,2026-07-04T14:44:39.148800,14.21604472,.00109653,98.7637,252.9352,201.4934,158.5784,0,U,37387,999,78865,.86074526E-4,.145E-5,0
HAIYANG-2A,2011-043A,2026-07-04T14:03:59.937696,13.73780507,.00041834,99.3394,187.8696,57.8163,302.3391,0,U,37781,999,74904,-.41168359E-4,-.82E-6,0
RASAT,2011-044D,2026-07-04T15:11:56.372640,14.68184069,.0021491,98.0583,276.7645,134.2568,333.4372,0,U,37791,999,79574,.11910884E-3,.639E-5,0
SRMSAT,2011-058D,2026-07-04T14:50:55.131360,14.11579515,.00118484,19.9730,313.9643,35.9930,68.0324,0,U,37841,999,76028,.85946856E-4,.423E-5,0
PLEIADES 1A,2011-076F,2026-07-04T15:04:50.928672,14.58543080,.00017663,98.1972,260.4969,85.6662,24.1564,0,U,38012,999,77453,.14794618E-3,.642E-5,0
ZIYUAN 1-02C (ZY 1-02C),2011-079A,2026-07-04T15:01:36.115680,14.38229611,.00051544,98.4063,252.5702,252.7468,266.2300,0,U,38038,999,76171,.21623095E-3,.614E-5,0
ARIRANG-3 (KOMPSAT-3),2012-025B,2026-07-04T14:51:45.919008,14.62222918,.0006704,98.1179,142.7792,65.9508,294.2395,0,U,38338,999,75389,.13520008E-3,.635E-5,0
EXACTVIEW-1 (ADS-1B),2012-039C,2026-07-04T14:01:02.358048,14.24990250,.00118515,98.9797,303.3688,119.3224,240.9140,0,U,38709,999,72518,.10427913E-3,.198E-5,0
SPOT 6,2012-047A,2026-07-04T14:56:48.356160,14.58533798,.0001239,98.2110,252.7275,77.7700,282.3638,0,U,38755,999,73559,.11126994E-3,.471E-5,0
PLEIADES 1B,2012-068A,2026-07-04T15:23:40.352064,14.58571790,.00017094,98.1942,260.4529,82.3982,277.7412,0,U,39019,999,72339,.98757408E-4,.414E-5,0
GOKTURK 2,2012-073A,2026-07-04T13:50:05.758656,14.75560262,.00009502,97.6809,22.1352,68.0719,292.0592,0,U,39030,999,72707,.80153013E-4,.499E-5,0
LANDSAT 8,2013-008A,2026-07-04T14:30:09.031680,14.57107282,.00013543,98.2295,255.5321,93.7576,266.3777,0,U,39084,999,70043,.11792692E-3,.486E-5,0
SARAL,2013-009A,2026-07-04T15:18:58.067712,14.32893408,.00010468,98.5554,11.9847,199.7300,160.3844,0,U,39086,999,69810,-.2604259E-5,-.51E-6,0
GAOFEN-1,2013-018A,2026-07-04T14:45:15.844608,14.76508620,.00161264,97.9087,257.3287,206.0074,154.0328,0,U,39150,999,71081,.85008061E-4,.542E-5,0
VNREDSAT 1,2013-021B,2026-07-04T15:27:07.025184,14.64875461,.00017085,97.9067,238.3899,82.9343,277.2055,0,U,39160,999,70284,.12585182E-3,.627E-5,0
ARIRANG-5 (KOMPSAT-5),2013-042A,2026-07-04T14:11:27.136320,15.04550096,.00052747,97.6207,12.0458,80.9007,279.2816,0,U,39227,999,70647,.1340423E-3,.1818E-4,0
SKYSAT-A,2013-066C,2026-07-04T14:01:57.871776,15.13075476,.00197427,97.3800,234.4277,252.4164,107.4911,0,U,39418,999,69111,.25040804E-3,.4386E-4,0
DUBAISAT-2,2013-066D,2026-07-04T15:05:21.281856,15.10314549,.00103891,97.4576,175.3171,343.8099,16.2797,0,U,39419,999,68902,.23144862E-3,.3734E-4,0
GPM-CORE,2014-009C,2026-07-04T13:26:12.314400,15.44944855,.00112123,64.9705,249.9296,258.4363,101.5520,0,U,39574,999,70049,.40400287E-3,.18961E-3,0
SENTINEL-1A,2014-016A,2026-07-04T13:53:37.840416,14.59199688,.0001368,98.1776,192.8577,84.1571,275.9784,0,U,39634,999,65255,-.12693009E-4,-.106E-5,0
KAZEOSAT 1,2014-024A,2026-07-03T22:50:10.114944,14.42086207,.0001156,98.3202,256.9818,78.7649,281.3671,0,U,39731,999,64097,.36168555E-4,.76E-6,0
